*******************************************************************************
 Revised: September 30, 2021           Uranus                               799
 
 PHYSICAL DATA:
  Mass x10^24 (kg)      = 86.813          Density (g/cm^3)       =  1.271
  Equat. radius (1 bar) = 25559+-4 km     Polar radius (km)      = 24973+-20
  Vol. Mean Radius (km) = 25362+-12       Flattening             =  0.02293
  Geometric Albedo      = 0.51
  Sid. rot. period (III)= 17.24+-0.01 h   Sid. rot. rate (rad/s) = -0.000101237
  Mean solar day, h     =~17.24           Rocky core mass (Mc/M) =  0.0012        
  GM (km^3/s^2)         = 5793951.256     GM 1-sigma (km^3/s^2)  = +-4.3 
  Equ. grav, ge (m/s^2) =  8.87           Pol. grav, gp (m/s^2)  =   9.19+-0.02
  Visual magnitude V(1,0)= -7.11
  Vis. mag. (opposition)=  +5.52          Obliquity to orbit     = 97.77 deg
  Sidereal orbit period = 84.0120465 y    Sidereal orbit period  = 30685.4 d
  Mean daily motion     = 0.01176904 dg/d Mean orbit velocity    =  6.8 km/s
  Atmos. temp. (1 bar)  =  76+-2 K        Escape speed, km/s     =  21.3           
  Aroche(ice)/Rp        =  2.20           Hill's sphere rad., Rp = 2700
                                 Perihelion   Aphelion    Mean
  Solar Constant (W/m^2)         4.09         3.39        3.71
  Maximum Planetary IR (W/m^2)   0.72         0.55        0.63
  Minimum Planetary IR (W/m^2)   0.72         0.55        0.63
*******************************************************************************


*******************************************************************************
Ephemeris / WWW_USER Sat Nov 16 03:44:59 2024 Pasadena, USA      / Horizons    
*******************************************************************************
Target body name: Uranus (799)                    {source: ura116}
Center body name: Earth (399)                     {source: ura116}
Center-site name: (user defined site below)
*******************************************************************************
Start time      : A.D. 2022-Dec-01 00:00:00.0000 UT      
Stop  time      : A.D. 2026-Dec-01 00:00:00.0000 UT      
Step-size       : 1440 minutes
*******************************************************************************
Target pole/equ : IAU_URANUS                      {East-longitude positive}
Target radii    : 25559.0, 25559.0, 24973.0 km    {Equator_a, b, pole_c}       
Center geodetic : 121.6333, 25.0333, 1.72871E-12  {E-lon(deg),Lat(deg),Alt(km)}
Center cylindric: 121.6333,5782.45421,2682.41715  {E-lon(deg),Dxy(km),Dz(km)}
Center pole/equ : ITRF93                          {East-longitude positive}
Center radii    : 6378.137, 6378.137, 6356.752 km {Equator_a, b, pole_c}       
Target primary  : Sun
Vis. interferer : MOON (R_eq= 1737.400) km        {source: ura116}
Rel. light bend : Sun                             {source: ura116}
Rel. lght bnd GM: 1.3271E+11 km^3/s^2                                          
Atmos refraction: NO (AIRLESS)
RA format       : HMS
Time format     : CAL 
Calendar mode   : Mixed Julian/Gregorian
EOP file        : eop.241115.p250211                                           
EOP coverage    : DATA-BASED 1962-JAN-20 TO 2024-NOV-15. PREDICTS-> 2025-FEB-10
Units conversion: 1 au= 149597870.700 km, c= 299792.458 km/s, 1 day= 86400.0 s 
Table cut-offs 1: Elevation (-90.0deg=NO ),Airmass (>38.000=NO), Daylight (NO )
Table cut-offs 2: Solar elongation (  0.0,180.0=NO ),Local Hour Angle( 0.0=NO )
Table cut-offs 3: RA/DEC angular rate (     0.0=NO )                           
Table format    : Comma Separated Values (spreadsheet)
***************************************************************************************************************************************************************************************************************************************************************************************************************************
 Date__(UT)__HR:MN, , , R.A._(ICRF), DEC__(ICRF), Azi_(a-app), Elev_(a-app),  dAZ*cosE, d(ELV)/dt,    APmag,  S-brt,    NP.ang,  NP.dist,             delta,     deldot,     S-O-T,/r,     S-T-O,     ObsEcLon,   ObsEcLat,  RA_(ICRF-a-app), DEC_(ICRF-a-app),  Sky_motion, Sky_mot_PA, RelVel-ANG,  Lun_Sky_Brt, sky_SNR,
***************************************************************************************************************************************************************************************************************************************************************************************************************************
$$SOE
 2024-Jun-14 00:00,*, , 03 29 00.77, +18 39 02.9,   97.920582,    63.158312,    272.89,    809.78,    5.850,  8.251,  274.5243,    0.663,  20.4727434946585,-14.1857970,   28.5632,/L,    1.4171,   54.8829186, -0.2610519,      03 28 59.57,      +18 38 58.5,   0.1299656,  75.710227,  -23.80457,         n.a.,    n.a.,
 2024-Jun-15 00:00,*, , 03 29 13.63, +18 39 48.9,   98.531043,    63.998074,    276.37,    808.53,    5.849,  8.251,  274.5787,    0.662,  20.4645420877485,-14.5847352,   29.4659,/L,    1.4582,   54.9353542, -0.2610180,      03 29 12.44,      +18 39 44.6,   0.1290731,  75.731155,  -24.55420,         n.a.,    n.a.,
 2024-Jun-16 00:00,*, , 03 29 26.41, +18 40 34.5,   99.169431,    64.836806,    280.24,    807.13,    5.848,  8.251,  274.6329,    0.661,  20.4561081048733,-14.9796331,   30.3688,/L,    1.4990,   54.9874360, -0.2609871,      03 29 25.24,      +18 40 30.2,   0.1281563,  75.751804,  -25.30419,         n.a.,    n.a.,
 2024-Jun-17 00:00,*, , 03 29 39.10, +18 41 19.7,   99.838677,    65.674350,    284.55,    805.56,    5.847,  8.251,  274.6869,    0.660,  20.4474438301375,-15.3705920,   31.2718,/L,    1.5394,   55.0391591, -0.2609593,      03 29 37.94,      +18 41 15.5,   0.1272168,  75.772513,  -26.05461,         n.a.,    n.a.,
 2024-Jun-18 00:00,*, , 03 29 51.71, +18 42 04.5,  100.542114,    66.510528,    289.34,    803.78,    5.846,  8.251,  274.7407,    0.659,  20.4385515402909,-15.7574425,   32.1750,/L,    1.5795,   55.0905187, -0.2609343,      03 29 50.55,      +18 42 00.4,   0.1262539,  75.792586,  -26.80549,         n.a.,    n.a.,
 2024-Jun-19 00:00,*, , 03 30 04.21, +18 42 49.0,  101.283543,    67.345133,    294.67,    801.78,    5.845,  8.251,  274.7943,    0.658,  20.4294335931926,-16.1402524,   33.0783,/L,    1.6191,   55.1415082, -0.2609119,      03 30 03.07,      +18 42 44.9,   0.1252682,  75.813061,  -27.55705,         n.a.,    n.a.,
 2024-Jun-20 00:00,*, , 03 30 16.63, +18 43 33.0,  102.067320,    68.177927,    300.58,    799.52,    5.844,  8.251,  274.8475,    0.657,  20.4200922328504,-16.5191536,   33.9818,/L,    1.6584,   55.1921204, -0.2608923,      03 30 15.50,      +18 43 29.0,   0.1242615,  75.833086,  -28.30925,         n.a.,    n.a.,
 2024-Jun-21 00:00,*, , 03 30 28.95, +18 44 16.6,  102.898456,    69.008635,    307.14,    796.96,    5.843,  8.251,  274.9006,    0.656,  20.4105297716330,-16.8938981,   34.8856,/L,    1.6973,   55.2423450, -0.2608750,      03 30 27.83,      +18 44 12.7,   0.1232316,  75.852561,  -29.06238,         n.a.,    n.a.,
 2024-Jun-22 00:00,*, , 03 30 41.17, +18 44 59.9,  103.782750,    69.836936,    314.43,    794.04,    5.842,  8.250,  274.9533,    0.655,  20.4007485233706,-17.2647563,   35.7896,/L,    1.7357,   55.2921686, -0.2608600,      03 30 40.06,      +18 44 55.9,   0.1221800,  75.872464,  -29.81668,         n.a.,    n.a.,
 2024-Jun-23 00:00,*, , 03 30 53.28, +18 45 42.7,  104.726937,    70.662455,    322.52,    790.73,    5.841,  8.250,  275.0058,    0.655,  20.3907506784272,-17.6317643,   36.6940,/L,    1.7737,   55.3415756, -0.2608474,      03 30 52.19,      +18 45 38.8,   0.1211069,  75.892077,  -30.57234,         n.a.,    n.a.,
 2024-Jun-24 00:00,*, , 03 31 05.30, +18 46 25.0,  105.738880,    71.484749,    331.51,    786.94,    5.840,  8.250,  275.0579,    0.654,  20.3805384395560,-17.9949976,   37.5987,/L,    1.8114,   55.3905489, -0.2608372,      03 31 04.22,      +18 46 21.2,   0.1200117,  75.912060,  -31.32974,         n.a.,    n.a.,
 2024-Jun-25 00:00,*,m, 03 31 17.21, +18 47 06.9,  106.827798,    72.303295,    341.52,    782.58,    5.839,  8.250,  275.1098,    0.653,  20.3701139020842,-18.3545751,   38.5037,/L,    1.8485,   55.4390724, -0.2608297,      03 31 16.14,      +18 47 03.2,   0.1188955,  75.931586,  -32.08896,         n.a.,    n.a.,
 2024-Jun-26 00:00,*,m, 03 31 29.01, +18 47 48.4,  108.004559,    73.117469,    352.68,    777.56,    5.838,  8.250,  275.1613,    0.652,  20.3594792375772,-18.7102520,   39.4092,/L,    1.8853,   55.4871329, -0.2608242,      03 31 27.96,      +18 47 44.7,   0.1177553,  75.950790,  -32.85049,         n.a.,    n.a.,
 2024-Jun-27 00:00,*,m, 03 31 40.70, +18 48 29.5,  109.282031,    73.926523,    365.12,    771.73,    5.836,  8.250,  275.2124,    0.651,  20.3486366390589,-19.0622138,   40.3151,/L,    1.9215,   55.5347209, -0.2608211,      03 31 39.66,      +18 48 25.8,   0.1165921,  75.970614,  -33.61454,         n.a.,    n.a.,
 2024-Jun-28 00:00,*,m, 03 31 52.27, +18 49 10.0,  110.675528,    74.729558,    379.01,    764.94,    5.835,  8.250,  275.2632,    0.650,  20.3375882559715,-19.4102608,   41.2215,/L,    1.9573,   55.5818322, -0.2608204,      03 31 51.25,      +18 49 06.4,   0.1154054,  75.989772,  -34.38114,         n.a.,    n.a.,
 2024-Jun-29 00:00,*,m, 03 32 03.73, +18 49 50.1,  112.203362,    75.525482,    394.57,    756.97,    5.834,  8.250,  275.3136,    0.649,  20.3263364292770,-19.7541359,   42.1284,/L,    1.9927,   55.6284650, -0.2608219,      03 32 02.73,      +18 49 46.6,   0.1141931,  76.009058,  -35.15061,         n.a.,    n.a.,
 2024-Jun-30 00:00,*,m, 03 32 15.08, +18 50 29.8,  113.887541,    76.312961,    412.00,    747.56,    5.833,  8.250,  275.3636,    0.649,  20.3148835620212,-20.0937538,   43.0358,/L,    2.0275,   55.6746180, -0.2608257,      03 32 14.08,      +18 50 26.3,   0.1129559,  76.028377,  -35.92287,         n.a.,    n.a.,
